start=new Date('2022-08-14T00:00:00.000Z').valueOf();
sats=[{"ELEMENT_SET_NO":"999","LAUNCH_DATE":"2020-01-07","MEAN_ELEMENT_THEORY":"SGP4","RA_OF_ASC_NODE":"40.0214","CENTER_NAME":"EARTH","OBJECT_NAME":"STARLINK-1069","TLE_LINE2":"2 44955  53.0547  40.0214 0001344  69.1165 290.9968 15.06392866143821","REF_FRAME":"TEME","SEMIMAJOR_AXIS":"6925.370","APOAPSIS":"548.166","MEAN_ANOMALY":"290.9968","ARG_OF_PERICENTER":"69.1165","NORAD_CAT_ID":"44955","DECAY_DATE":null,"ECCENTRICITY":"0.00013440","FILE":"3535825","GP_ID":"210160288","EPHEMERIS_TYPE":"0","MEAN_MOTION_DDOT":"0.0000000000000","COUNTRY_CODE":"US","RCS_SIZE":"LARGE","SITE":"AFETR","MEAN_MOTION":"15.06392866","TLE_LINE1":"1 44955U 20001AT  22225.79654590  .00000487  00000-0  51573-4 0  9992","PERIOD":"95.593","PERIAPSIS":"546.305","TIME_SYSTEM":"UTC","OBJECT_ID":"2020-001AT","CLASSIFICATION_TYPE":"U","MEAN_MOTION_DOT":"0.00000487","OBJECT_TYPE":"PAYLOAD","INCLINATION":"53.0547","EPOCH":"2022-08-13T19:07:01.565760","BSTAR":"0.00005157300000","REV_AT_EPOCH":"14382"},{"INCLINATION":"53.0539","OBJECT_TYPE":"PAYLOAD","REV_AT_EPOCH":"14389","BSTAR":"-0.00005148600000","EPOCH":"2022-08-13T20:35:54.512448","PERIOD":"95.593","TLE_LINE1":"1 44956U 20001AU  22225.85826982 -.00001048  00000-0 -51486-4 0  9995","MEAN_MOTION":"15.06391464","SITE":"AFETR","RCS_SIZE":"LARGE","COUNTRY_CODE":"US","MEAN_MOTION_DOT":"-0.00001048","CLASSIFICATION_TYPE":"U","TIME_SYSTEM":"UTC","OBJECT_ID":"2020-001AU","PERIAPSIS":"546.295","NORAD_CAT_ID":"44956","EPHEMERIS_TYPE":"0","MEAN_MOTION_DDOT":"0.0000000000000","GP_ID":"210161038","FILE":"3535825","ECCENTRICITY":"0.00013640","DECAY_DATE":null,"MEAN_ELEMENT_THEORY":"SGP4","LAUNCH_DATE":"2020-01-07","ELEMENT_SET_NO":"999","APOAPSIS":"548.184","MEAN_ANOMALY":"260.8338","ARG_OF_PERICENTER":"99.2806","SEMIMAJOR_AXIS":"6925.375","TLE_LINE2":"2 44956  53.0539  39.7308 0001364  99.2806 260.8338 15.06391464143897","REF_FRAME":"TEME","CENTER_NAME":"EARTH","OBJECT_NAME":"STARLINK-1070","RA_OF_ASC_NODE":"39.7308"},{"NORAD_CAT_ID":"44957","FILE":"3535825","ECCENTRICITY":"0.00014450","DECAY_DATE":null,"EPHEMERIS_TYPE":"0","MEAN_MOTION_DDOT":"0.0000000000000","GP_ID":"210161289","LAUNCH_DATE":"2020-01-07","ELEMENT_SET_NO":"999","MEAN_ELEMENT_THEORY":"SGP4","CENTER_NAME":"EARTH","OBJECT_NAME":"STARLINK-1074","RA_OF_ASC_NODE":"39.6133","MEAN_ANOMALY":"264.0486","APOAPSIS":"548.227","ARG_OF_PERICENTER":"96.0668","SEMIMAJOR_AXIS":"6925.361","TLE_LINE2":"2 44957  53.0539  39.6133 0001445  96.0668 264.0486 15.06395875143894","REF_FRAME":"TEME","INCLINATION":"53.0539","OBJECT_TYPE":"PAYLOAD","BSTAR":"0.00000695280000","EPOCH":"2022-08-13T21:13:03.199584","REV_AT_EPOCH":"14389","SITE":"AFETR","RCS_SIZE":"LARGE","COUNTRY_CODE":"US","PERIOD":"95.592","TLE_LINE1":"1 44957U 20001AV  22225.88406481 -.00000178  00000-0  69528-5 0  9996","MEAN_MOTION":"15.06395875","PERIAPSIS":"546.225","MEAN_MOTION_DOT":"-0.00000178","CLASSIFICATION_TYPE":"U","TIME_SYSTEM":"UTC","OBJECT_ID":"2020-001AV"},{"REV_AT_EPOCH":"14388","EPOCH":"2022-08-13T20:00:06.624864","BSTAR":"-0.00007332100000","OBJECT_TYPE":"PAYLOAD","INCLINATION":"53.0546","OBJECT_ID":"2020-001AX","TIME_SYSTEM":"UTC","CLASSIFICATION_TYPE":"U","MEAN_MOTION_DOT":"-0.00001373","PERIAPSIS":"546.255","MEAN_MOTION":"15.06387510","TLE_LINE1":"1 44959U 20001AX  22225.83341001 -.00001373  00000-0 -73321-4 0  9993","PERIOD":"95.593","COUNTRY_CODE":"US","RCS_SIZE":"LARGE","SITE":"AFETR","GP_ID":"210162040","EPHEMERIS_TYPE":"0","MEAN_MOTION_DDOT":"0.0000000000000","DECAY_DATE":null,"ECCENTRICITY":"0.00014400","FILE":"3535825","NORAD_CAT_ID":"44959","TLE_LINE2":"2 44959  53.0546  39.8501 0001440  72.5844 287.5302 15.06387510143888","REF_FRAME":"TEME","SEMIMAJOR_AXIS":"6925.387","APOAPSIS":"548.249","ARG_OF_PERICENTER":"72.5844","MEAN_ANOMALY":"287.5302","RA_OF_ASC_NODE":"39.8501","CENTER_NAME":"EARTH","OBJECT_NAME":"STARLINK-1076","MEAN_ELEMENT_THEORY":"SGP4","ELEMENT_SET_NO":"999","LAUNCH_DATE":"2020-01-07"},{"NORAD_CAT_ID":"44961","MEAN_MOTION_DDOT":"0.0000000000000","EPHEMERIS_TYPE":"0","GP_ID":"210160788","ECCENTRICITY":"0.00013450","FILE":"3535825","DECAY_DATE":null,"MEAN_ELEMENT_THEORY":"SGP4","LAUNCH_DATE":"2020-01-07","ELEMENT_SET_NO":"999","APOAPSIS":"548.174","ARG_OF_PERICENTER":"104.4761","MEAN_ANOMALY":"255.6378","TLE_LINE2":"2 44961  53.0540  40.1297 0001345 104.4761 255.6378 15.06390574143882","REF_FRAME":"TEME","SEMIMAJOR_AXIS":"6925.377","CENTER_NAME":"EARTH","OBJECT_NAME":"STARLINK-1080","RA_OF_ASC_NODE":"40.1297","OBJECT_TYPE":"PAYLOAD","INCLINATION":"53.0540","REV_AT_EPOCH":"14388","BSTAR":"0.00001466700000","EPOCH":"2022-08-13T18:35:10.850496","PERIOD":"95.593","MEAN_MOTION":"15.06390574","TLE_LINE1":"1 44961U 20001AZ  22225.77443114 -.00000063  00000-0  14667-4 0  9999","SITE":"AFETR","COUNTRY_CODE":"US","RCS_SIZE":"LARGE","CLASSIFICATION_TYPE":"U","MEAN_MOTION_DOT":"-0.00000063","TIME_SYSTEM":"UTC","OBJECT_ID":"2020-001AZ","PERIAPSIS":"546.311"},{"OBJECT_TYPE":"PAYLOAD","INCLINATION":"52.9983","REV_AT_EPOCH":"14480","BSTAR":"0.00092777000000","EPOCH":"2022-08-13T17:24:24.527232","PERIOD":"94.905","MEAN_MOTION":"15.17313774","TLE_LINE1":"1 44963U 20001BB  22225.72528388  .00018458  00000-0  92777-3 0  9996","SITE":"AFETR","COUNTRY_CODE":"US","RCS_SIZE":"LARGE","CLASSIFICATION_TYPE":"U","MEAN_MOTION_DOT":"0.00018458","TIME_SYSTEM":"UTC","OBJECT_ID":"2020-001BB","PERIAPSIS":"513.105","NORAD_CAT_ID":"44963","EPHEMERIS_TYPE":"0","MEAN_MOTION_DDOT":"0.0000000000000","GP_ID":"210160538","ECCENTRICITY":"0.00012480","FILE":"3535825","DECAY_DATE":null,"MEAN_ELEMENT_THEORY":"SGP4","LAUNCH_DATE":"2020-01-07","ELEMENT_SET_NO":"999","MEAN_ANOMALY":"259.7841","APOAPSIS":"514.825","ARG_OF_PERICENTER":"100.3293","REF_FRAME":"TEME","TLE_LINE2":"2 44963  52.9983  23.6426 0001248 100.3293 259.7841 15.17313774144802","SEMIMAJOR_AXIS":"6892.100","CENTER_NAME":"EARTH","OBJECT_NAME":"STARLINK-1085","RA_OF_ASC_NODE":"23.6426"},{"OBJECT_TYPE":"PAYLOAD","INCLINATION":"53.0551","REV_AT_EPOCH":"14388","BSTAR":"0.00011284000000","EPOCH":"2022-08-13T19:17:38.803776","PERIOD":"95.592","MEAN_MOTION":"15.06394837","TLE_LINE1":"1 44964U 20001BC  22225.80392134  .00001399  00000-0  11284-3 0  9994","SITE":"AFETR","COUNTRY_CODE":"US","RCS_SIZE":"LARGE","CLASSIFICATION_TYPE":"U","MEAN_MOTION_DOT":"0.00001399","TIME_SYSTEM":"UTC","OBJECT_ID":"2020-001BC","PERIAPSIS":"546.226","NORAD_CAT_ID":"44964","MEAN_MOTION_DDOT":"0.0000000000000","EPHEMERIS_TYPE":"0","GP_ID":"210161790","ECCENTRICITY":"0.00014490","FILE":"3535825","DECAY_DATE":null,"MEAN_ELEMENT_THEORY":"SGP4","LAUNCH_DATE":"2020-01-07","ELEMENT_SET_NO":"999","ARG_OF_PERICENTER":"90.5781","APOAPSIS":"548.233","MEAN_ANOMALY":"269.5375","REF_FRAME":"TEME","TLE_LINE2":"2 44964  53.0551  39.9794 0001449  90.5781 269.5375 15.06394837143884","SEMIMAJOR_AXIS":"6925.364","OBJECT_NAME":"STARLINK-1086","CENTER_NAME":"EARTH","RA_OF_ASC_NODE":"39.9794"},{"MEAN_ELEMENT_THEORY":"SGP4","ELEMENT_SET_NO":"999","LAUNCH_DATE":"2020-01-07","SEMIMAJOR_AXIS":"6925.358","REF_FRAME":"TEME","TLE_LINE2":"2 44966  53.0539  39.9045 0001425  89.9778 270.1374 15.06396929143884","APOAPSIS":"548.210","MEAN_ANOMALY":"270.1374","ARG_OF_PERICENTER":"89.9778","RA_OF_ASC_NODE":"39.9045","CENTER_NAME":"EARTH","OBJECT_NAME":"STARLINK-1088","NORAD_CAT_ID":"44966","GP_ID":"210161540","MEAN_MOTION_DDOT":"0.0000000000000","EPHEMERIS_TYPE":"0","DECAY_DATE":null,"FILE":"3535825","ECCENTRICITY":"0.00014250","TLE_LINE1":"1 44966U 20001BE  22225.82604139  .00002480  00000-0  18532-3 0  9994","MEAN_MOTION":"15.06396929","PERIOD":"95.592","RCS_SIZE":"LARGE","COUNTRY_CODE":"US","SITE":"AFETR","TIME_SYSTEM":"UTC","OBJECT_ID":"2020-001BE","MEAN_MOTION_DOT":"0.00002480","CLASSIFICATION_TYPE":"U","PERIAPSIS":"546.236","INCLINATION":"53.0539","OBJECT_TYPE":"PAYLOAD","REV_AT_EPOCH":"14388","EPOCH":"2022-08-13T19:49:29.976096","BSTAR":"0.00018532000000"},{"PERIAPSIS":"546.215","CLASSIFICATION_TYPE":"U","MEAN_MOTION_DOT":"-0.00000456","TIME_SYSTEM":"UTC","OBJECT_ID":"2020-001BF","SITE":"AFETR","COUNTRY_CODE":"US","RCS_SIZE":"LARGE","PERIOD":"95.593","MEAN_MOTION":"15.06392775","TLE_LINE1":"1 44967U 20001BF  22225.71546179 -.00000456  00000-0 -11750-4 0  9991","BSTAR":"-0.00001175000000","EPOCH":"2022-08-13T17:10:15.898656","REV_AT_EPOCH":"14387","OBJECT_TYPE":"PAYLOAD","INCLINATION":"53.0540","CENTER_NAME":"EARTH","OBJECT_NAME":"STARLINK-1089","RA_OF_ASC_NODE":"40.3825","APOAPSIS":"548.257","MEAN_ANOMALY":"276.3652","ARG_OF_PERICENTER":"83.7505","TLE_LINE2":"2 44967  53.0540  40.3825 0001474  83.7505 276.3652 15.06392775143874","REF_FRAME":"TEME","SEMIMAJOR_AXIS":"6925.371","LAUNCH_DATE":"2020-01-07","ELEMENT_SET_NO":"999","MEAN_ELEMENT_THEORY":"SGP4","ECCENTRICITY":"0.00014740","FILE":"3535825","DECAY_DATE":null,"EPHEMERIS_TYPE":"0","MEAN_MOTION_DDOT":"0.0000000000000","GP_ID":"210160289","NORAD_CAT_ID":"44967"},{"FILE":"3535825","ECCENTRICITY":"0.00012540","DECAY_DATE":null,"MEAN_MOTION_DDOT":"0.0000000000000","EPHEMERIS_TYPE":"0","GP_ID":"210161039","NORAD_CAT_ID":"44968","OBJECT_NAME":"STARLINK-1090","CENTER_NAME":"EARTH","RA_OF_ASC_NODE":"40.4063","APOAPSIS":"548.088","MEAN_ANOMALY":"263.0213","ARG_OF_PERICENTER":"97.0919","SEMIMAJOR_AXIS":"6925.355","REF_FRAME":"TEME","TLE_LINE2":"2 44968  53.0549  40.4063 0001254  97.0919 263.0213 15.06397899143870","LAUNCH_DATE":"2020-01-07","ELEMENT_SET_NO":"999","MEAN_ELEMENT_THEORY":"SGP4","BSTAR":"-0.00001139100000","EPOCH":"2022-08-13T17:04:57.291744","REV_AT_EPOCH":"14387","INCLINATION":"53.0549","OBJECT_TYPE":"PAYLOAD","PERIAPSIS":"546.352","MEAN_MOTION_DOT":"-0.00000451","CLASSIFICATION_TYPE":"U","OBJECT_ID":"2020-001BG","TIME_SYSTEM":"UTC","SITE":"AFETR","RCS_SIZE":"LARGE","COUNTRY_CODE":"US","PERIOD":"95.592","TLE_LINE1":"1 44968U 20001BG  22225.71177421 -.00000451  00000-0 -11391-4 0  9998","MEAN_MOTION":"15.06397899"}];
